sat_config_name,tle_name,norad_id,horizons_id,epoch_tle,t_obs,delta_t_min,incl_deg,raan_deg,ecc,argp_deg,M_deg,mean_motion_rev_per_day,x_sgp4,y_sgp4,z_sgp4,vx_sgp4,vy_sgp4,vz_sgp4,x_true,y_true,z_true,vx_true,vy_true,vz_true,err_x,err_y,err_z,err_vx,err_vy,err_vz,err_norm,horizons_ok,line1,line2
CHANDRA,CXO,25867,-151,2025-11-29T09:28:09.054336+00:00,2025-11-30T04:38:09.054336+00:00,1150.0,52.7584,123.0489,0.8164697,310.7158,0.2585,0.37803381,-26474.008879521905,-88986.01001163125,92639.82372010243,0.4135088402936275,-0.9611383787595907,0.22369124069173854,-26470.779684233537,-88981.0443135956,92636.48384445801,0.41282153106805664,-0.9616435237525988,0.22434722758521594,-3.2291952883679187,-4.965698035652167,3.3398756444221362,0.0006873092255708646,0.0005051449930080221,-0.0006559868934774005,6.800046213953369,True,1 25867U 99040B   25333.39454924  .00000722  00000+0  00000+0 0  9995,2 25867  52.7584 123.0489 8164697 310.7158   0.2585  0.37803381 16565
CHANDRA,CXO,25867,-151,2025-11-29T09:28:09.054336+00:00,2025-11-30T04:43:09.054336+00:00,1155.0,52.7584,123.0489,0.8164697,310.7158,0.2585,0.37803381,-26349.800063484203,-89273.71732674721,92706.2947282605,0.4149041813735611,-0.9564239432419134,0.21878831336625099,-26346.723844973687,-89268.83006604432,92703.0518600474,0.41421508520608913,-0.956929384736749,0.2194429816570866,-3.0762185105159006,-4.887260702889762,3.2428682130994275,0.0006890961674719809,0.0005054414948356678,-0.0006546682908356027,6.623037954744172,True,1 25867U 99040B   25333.39454924  .00000722  00000+0  00000+0 0  9995,2 25867  52.7584 123.0489 8164697 310.7158   0.2585  0.37803381 16565
CHANDRA,CXO,25867,-151,2025-11-29T09:28:09.054336+00:00,2025-11-30T04:48:09.054336+00:00,1160.0,52.7584,123.0489,0.8164697,310.7158,0.2585,0.37803381,-26225.174831094933,-89560.01104444846,92771.29707825805,0.4162860884612106,-0.9517176544312814,0.21390609635565247,-26222.251974982344,-89555.20276356609,92768.15170574062,0.4155952033580522,-0.9522233952306418,0.21455944811840258,-2.9228561125892156,-4.808280882367399,3.1453725174360443,0.0006908851031584007,0.000505740799360388,-0.0006533517627501095,6.446395983189515,True,1 25867U 99040B   25333.39454924  .00000722  00000+0  00000+0 0  9995,2 25867  52.7584 123.0489 8164697 310.7158   0.2585  0.37803381 16565
CHANDRA,CXO,25867,-151,2025-11-29T09:28:09.054336+00:00,2025-11-30T04:53:09.054336+00:00,1165.0,52.7584,123.0489,0.8164697,310.7158,0.2585,0.37803381,-26100.137192675167,-89844.8935948845,92834.83695049456,0.4176547012695367,-0.9470194050342021,0.2090443583283778,-26097.368067460196,-89840.1648731988,92831.78956925425,0.4169620254426623,-0.9475254473635006,0.20969639498260847,-2.7691252149706997,-4.728721685707569,3.047381240307004,0.0006926758268743782,0.0005060423292985172,-0.0006520366542306644,6.270199012857774,True,1 25867U 99040B   25333.39454924  .00000722  00000+0  00000+0 0  9995,2 25867  52.7584 123.0489 8164697 310.7158   0.2585  0.37803381 16565
CHANDRA,CXO,25867,-151,2025-11-29T09:28:09.054336+00:00,2025-11-30T04:58:09.054336+00:00,1170.0,52.7584,123.0489,0.8164697,310.7158,0.2585,0.37803381,-25974.691116962058,-90128.36737612053,92896.92045642498,0.4190101571433714,-0.9423290886150394,0.20420287119181485,-25972.076073767614,-90123.71882931216,92893.97156864015,0.418315689004372,-0.9428354341247686,0.20485359351193527,-2.615043194444297,-4.648546808370156,2.948887784834369,0.0006944681389994267,0.0005063455097291669,-0.0006507223201204226,6.094536693298609,True,1 25867U 99040B   25333.39454924  .00000722  00000+0  00000+0 0  9995,2 25867  52.7584 123.0489 8164697 310.7158   0.2585  0.37803381 16565
CHANDRA,CXO,25867,-151,2025-11-29T09:28:09.054336+00:00,2025-11-30T05:03:09.054336+00:00,1175.0,52.7584,123.0489,0.8164697,310.7158,0.2585,0.37803381,-25848.840531823706,-90410.43475439018,92957.55363952198,0.420352591106012,-0.9376465995829745,0.199381410031148,-25846.37995473382,-90405.86692074474,92954.70372913577,0.41965632872407377,-0.938153251231147,0.20003082009024212,-2.4605770898851915,-4.567833645443898,2.8499103862122865,0.0006962623819382063,0.0005066516481725403,-0.0006494100590941077,5.919588924676935,True,1 25867U 99040B   25333.39454924  .00000722  00000+0  00000+0 0  9995,2 25867  52.7584 123.0489 8164697 310.7158   0.2585  0.37803381 16565
CHANDRA,CXO,25867,-151,2025-11-29T09:28:09.054336+00:00,2025-11-30T05:08:09.054336+00:00,1180.0,52.7584,123.0489,0.8164697,310.7158,0.2585,0.37803381,-25722.589324945817,-90691.09806434844,93016.74247622186,0.42168213590482057,-0.9329718331790539,0.19457975304958933,-25720.283563728215,-90686.61155645798,93013.99204192426,0.4209840777294027,-0.9334787927186333,0.19522785162919254,-2.3057612176016846,-4.486507890454959,2.7504342976026237,0.0006980581754178483,0.0005069595395794657,-0.0006480985796032124,5.745448343614226,True,1 25867U 99040B   25333.39454924  .00000722  00000+0  00000+0 0  9995,2 25867  52.7584 123.0489 8164697 310.7158   0.2585  0.37803381 16565
CHANDRA,CXO,25867,-151,2025-11-29T09:28:09.054336+00:00,2025-11-30T05:13:09.054336+00:00,1185.0,52.7584,123.0489,0.8164697,310.7158,0.2585,0.37803381,-25595.941344511524,-90970.359609318,93074.4928768505,0.42299892205562656,-0.9283046854634216,0.18979768150996004,-25593.79078231084,-90965.95496281364,93071.84239984979,0.42229906620055324,-0.9288119559577361,0.19044447068768014,-2.1505622006843623,-4.404646504350239,2.6504770007159095,0.0006998558550733169,0.0005072704943145379,-0.0006467891777200974,5.572329579145616,True,1 25867U 99040B   25333.39454924  .00000722  00000+0  00000+0 0  9995,2 25867  52.7584 123.0489 8164697 310.7158   0.2585  0.37803381 16565
CHANDRA,CXO,25867,-151,2025-11-29T09:28:09.054336+00:00,2025-11-30T05:18:09.054336+00:00,1190.0,52.7584,123.0489,0.8164697,310.7158,0.2585,0.37803381,-25468.900399870814,-91248.2216615323,93130.81068653388,0.42430307788602173,-0.9236450533027128,0.1850349796775859,-25466.905385324575,-91243.8994856593,93128.2606620725,0.42360142283981467,-0.9241526366149017,0.1856804602520905,-1.9950145462389628,-4.322175872992375,2.5500244613795076,0.0007016550462070614,0.0005075833121888085,-0.0006454805745046144,5.400362216594022,True,1 25867U 99040B   25333.39454924  .00000722  00000+0  00000+0 0  9995,2 25867  52.7584 123.0489 8164697 310.7158   0.2585  0.37803381 16565
CHANDRA,CXO,25867,-151,2025-11-29T09:28:09.054336+00:00,2025-11-30T05:23:09.054336+00:00,1195.0,52.7584,123.0489,0.8164697,310.7158,0.2585,0.37803381,-25341.47026216714,-91524.68646238194,93185.70168609051,0.4255947295778982,-0.9189928343574616,0.1802914347644815,-25339.631177387142,-91520.44729056825,93183.25259282759,0.4248912735016151,-0.9195007336520045,0.18093560881763057,-1.8390847799964831,-4.239171813693247,2.449093262926908,0.0007034560762830822,0.0005078992945428684,-0.0006441740531490658,5.229805761645452,True,1 25867U 99040B   25333.39454924  .00000722  00000+0  00000+0 0  9995,2 25867  52.7584 123.0489 8164697 310.7158   0.2585  0.37803381 16565
CHANDRA,CXO,25867,-151,2025-11-29T09:28:09.054336+00:00,2025-11-30T05:28:09.054336+00:00,1200.0,52.7584,123.0489,0.8164697,310.7158,0.2585,0.37803381,-25213.654665000606,-91799.7562226449,93239.1715929076,0.4268740012084524,-0.9143479270698722,0.1755668368747607,-25211.971857500946,-91795.60066105702,93236.82392279242,0.42616874263087456,-0.9148561443188249,0.17620970522539073,-1.6828074996592477,-4.155561587875127,2.347670115181245,0.0007052585775778608,0.0005082172489526693,-0.0006428683506300159,5.060838681606812,True,1 25867U 99040B   25333.39454924  .00000722  00000+0  00000+0 0  9995,2 25867  52.7584 123.0489 8164697 310.7158   0.2585  0.37803381 16565
CHANDRA,CXO,25867,-151,2025-11-29T09:28:09.054336+00:00,2025-11-30T05:33:09.054336+00:00,1205.0,52.7584,123.0489,0.8164697,310.7158,0.2585,0.37803381,-25085.457305040574,-92073.43312272217,93291.2260618015,0.42814101479059097,-0.9097102306515727,0.17086097895128766,-25083.931156029823,-92069.36170253844,93288.98029102638,0.4274339519209496,-0.9102187691247302,0.1715025436928209,-1.5261490107513964,-4.071420183725422,2.245770775116398,0.000707062869641395,0.0005085384731574605,-0.0006415647415332348,4.893779673200575,True,1 25867U 99040B   25333.39454924  .00000722  00000+0  00000+0 0  9995,2 25867  52.7584 123.0489 8164697 310.7158   0.2585  0.37803381 16565
CHANDRA,CXO,25867,-151,2025-11-29T09:28:09.054336+00:00,2025-11-30T05:38:09.054336+00:00,1210.0,52.7584,123.0489,0.8164697,310.7158,0.2585,0.37803381,-24956.881842650517,-92345.71931286459,93341.87068586131,0.4293958903121118,-0.9050796450716165,0.16617365672348405,-24955.51271566763,-92341.73260117217,93339.72729655124,0.4286870215556489,-0.9055885074664513,0.1668139193212214,-1.3691269828850636,-3.9867116924142465,2.1433893100766,0.000708868756462866,0.0005088623948347193,-0.0006402625977373344,4.728900141496653,True,1 25867U 99040B   25333.39454924  .00000722  00000+0  00000+0 0  9995,2 25867  52.7584 123.0489 8164697 310.7158   0.2585  0.37803381 16565
CHANDRA,CXO,25867,-151,2025-11-29T09:28:09.054336+00:00,2025-11-30T05:43:09.054336+00:00,1215.0,52.7584,123.0489,0.8164697,310.7158,0.2585,0.37803381,-24827.931902467757,-92616.61691340477,93391.110997278,0.4306387457742735,-0.9004560710444663,0.16150466865629637,-24826.72014335209,-92612.71551217115,93389.07047670672,0.4299280697245384,-0.900965259495603,0.16214362996377962,-1.211759115667519,-3.9014012336119777,2.040520571274101,0.0007106760497351261,0.0005091884511366773,-0.0006389613074832545,4.5665102585919115,True,1 25867U 99040B   25333.39454924  .00000722  00000+0  00000+0 0  9995,2 25867  52.7584 123.0489 8164697 310.7158   0.2585  0.37803381 16565
